start=new Date('2023-01-24T00:00:00.000Z').valueOf();
sats=[{"MEAN_ELEMENT_THEORY":"SGP4","EPHEMERIS_TYPE":"0","SEMIMAJOR_AXIS":"6917.874","ELEMENT_SET_NO":"999","MEAN_MOTION_DOT":"0.00009943","TLE_LINE1":"1 52347U 22045S   23023.73314034  .00009943  00000-0  64188-3 0  9994","MEAN_ANOMALY":"290.3767","RA_OF_ASC_NODE":"281.0830","OBJECT_ID":"2022-045S","INCLINATION":"53.2139","MEAN_MOTION":"15.08841928","ECCENTRICITY":"0.00013180","CENTER_NAME":"EARTH","LAUNCH_DATE":"2022-04-29","PERIAPSIS":"538.828","DECAY_DATE":null,"SITE":"AFETR","RCS_SIZE":"LARGE","ARG_OF_PERICENTER":"69.7367","EPOCH":"2023-01-23T17:35:43.325376","MEAN_MOTION_DDOT":"0.0000000000000","CLASSIFICATION_TYPE":"U","BSTAR":"0.00064188000000","NORAD_CAT_ID":"52347","FILE":"3759158","GP_ID":"223621003","PERIOD":"95.437","TIME_SYSTEM":"UTC","REF_FRAME":"TEME","APOAPSIS":"540.651","OBJECT_TYPE":"PAYLOAD","TLE_LINE2":"2 52347  53.2139 281.0830 0001318  69.7367 290.3767 15.08841928 43534","COUNTRY_CODE":"US","REV_AT_EPOCH":"4353","OBJECT_NAME":"STARLINK-3826"},{"RA_OF_ASC_NODE":"284.4328","OBJECT_ID":"2022-045T","INCLINATION":"53.2135","MEAN_MOTION":"15.08824864","MEAN_ANOMALY":"252.7080","SEMIMAJOR_AXIS":"6917.927","EPHEMERIS_TYPE":"0","ELEMENT_SET_NO":"999","MEAN_MOTION_DOT":"0.00008787","TLE_LINE1":"1 52348U 22045T   23022.98609459  .00008787  00000-0  56974-3 0  9998","MEAN_ELEMENT_THEORY":"SGP4","ARG_OF_PERICENTER":"107.4044","EPOCH":"2023-01-22T23:39:58.572576","SITE":"AFETR","DECAY_DATE":null,"RCS_SIZE":"LARGE","ECCENTRICITY":"0.00012110","CENTER_NAME":"EARTH","PERIAPSIS":"538.954","LAUNCH_DATE":"2022-04-29","REF_FRAME":"TEME","TIME_SYSTEM":"UTC","GP_ID":"223607570","PERIOD":"95.439","CLASSIFICATION_TYPE":"U","BSTAR":"0.00056974000000","NORAD_CAT_ID":"52348","FILE":"3758565","MEAN_MOTION_DDOT":"0.0000000000000","OBJECT_NAME":"STARLINK-3829","COUNTRY_CODE":"US","REV_AT_EPOCH":"4342","APOAPSIS":"540.629","OBJECT_TYPE":"PAYLOAD","TLE_LINE2":"2 52348  53.2135 284.4328 0001211 107.4044 252.7080 15.08824864 43422"},{"ECCENTRICITY":"0.00013590","PERIAPSIS":"538.823","LAUNCH_DATE":"2022-04-29","CENTER_NAME":"EARTH","ARG_OF_PERICENTER":"64.8097","EPOCH":"2023-01-23T03:06:39.100608","DECAY_DATE":null,"SITE":"AFETR","RCS_SIZE":"LARGE","MEAN_MOTION_DOT":"0.00012034","ELEMENT_SET_NO":"999","SEMIMAJOR_AXIS":"6917.898","EPHEMERIS_TYPE":"0","TLE_LINE1":"1 52349U 22045U   23023.12961922  .00012034  00000-0  77301-3 0  9999","MEAN_ELEMENT_THEORY":"SGP4","OBJECT_ID":"2022-045U","RA_OF_ASC_NODE":"283.7813","MEAN_MOTION":"15.08834110","INCLINATION":"53.2166","MEAN_ANOMALY":"295.3036","COUNTRY_CODE":"US","REV_AT_EPOCH":"4344","OBJECT_TYPE":"PAYLOAD","APOAPSIS":"540.704","TLE_LINE2":"2 52349  53.2166 283.7813 0001359  64.8097 295.3036 15.08834110 43446","OBJECT_NAME":"STARLINK-3819","BSTAR":"0.00077301000000","CLASSIFICATION_TYPE":"U","FILE":"3758579","NORAD_CAT_ID":"52349","MEAN_MOTION_DDOT":"0.0000000000000","TIME_SYSTEM":"UTC","REF_FRAME":"TEME","GP_ID":"223607954","PERIOD":"95.438"},{"CENTER_NAME":"EARTH","LAUNCH_DATE":"2022-04-29","PERIAPSIS":"538.103","ECCENTRICITY":"0.00023760","EPOCH":"2023-01-22T10:51:35.772768","ARG_OF_PERICENTER":"72.4805","RCS_SIZE":"MEDIUM","DECAY_DATE":null,"SITE":"AFETR","TLE_LINE1":"1 52350U 22045V   23022.45249737  .00000199  00000-0  30646-4 0  9990","EPHEMERIS_TYPE":"0","SEMIMAJOR_AXIS":"6917.882","ELEMENT_SET_NO":"999","MEAN_MOTION_DOT":"0.00000199","MEAN_ELEMENT_THEORY":"SGP4","INCLINATION":"53.2149","MEAN_MOTION":"15.08839565","RA_OF_ASC_NODE":"286.8243","OBJECT_ID":"2022-045V","MEAN_ANOMALY":"287.6447","REV_AT_EPOCH":"4334","COUNTRY_CODE":"US","TLE_LINE2":"2 52350  53.2149 286.8243 0002376  72.4805 287.6447 15.08839565 43340","APOAPSIS":"541.390","OBJECT_TYPE":"PAYLOAD","OBJECT_NAME":"STARLINK-3754","NORAD_CAT_ID":"52350","FILE":"3757896","CLASSIFICATION_TYPE":"U","BSTAR":"0.00003064600000","MEAN_MOTION_DDOT":"0.0000000000000","TIME_SYSTEM":"UTC","REF_FRAME":"TEME","PERIOD":"95.438","GP_ID":"223593923"},{"DECAY_DATE":null,"SITE":"AFETR","RCS_SIZE":"LARGE","EPOCH":"2023-01-23T10:26:29.000832","ARG_OF_PERICENTER":"81.4304","CENTER_NAME":"EARTH","PERIAPSIS":"539.003","LAUNCH_DATE":"2022-04-29","ECCENTRICITY":"0.00010530","MEAN_ANOMALY":"278.6807","INCLINATION":"53.2138","MEAN_MOTION":"15.08844522","RA_OF_ASC_NODE":"282.4165","OBJECT_ID":"2022-045X","MEAN_ELEMENT_THEORY":"SGP4","TLE_LINE1":"1 52352U 22045X   23023.43505788  .00020838  00000-0  13233-2 0  9995","SEMIMAJOR_AXIS":"6917.867","EPHEMERIS_TYPE":"0","ELEMENT_SET_NO":"999","MEAN_MOTION_DOT":"0.00020838","OBJECT_NAME":"STARLINK-3838","TLE_LINE2":"2 52352  53.2138 282.4165 0001053  81.4304 278.6807 15.08844522 43495","APOAPSIS":"540.460","OBJECT_TYPE":"PAYLOAD","COUNTRY_CODE":"US","REV_AT_EPOCH":"4349","PERIOD":"95.437","GP_ID":"223621079","REF_FRAME":"TEME","TIME_SYSTEM":"UTC","MEAN_MOTION_DDOT":"0.0000000000000","NORAD_CAT_ID":"52352","FILE":"3759168","CLASSIFICATION_TYPE":"U","BSTAR":"0.00132330000000"},{"OBJECT_NAME":"STARLINK-3807","APOAPSIS":"540.655","OBJECT_TYPE":"PAYLOAD","TLE_LINE2":"2 52353  53.2134 282.3856 0001333  62.7141 297.3987 15.08844243 43497","REV_AT_EPOCH":"4349","COUNTRY_CODE":"US","GP_ID":"223621007","PERIOD":"95.437","REF_FRAME":"TEME","TIME_SYSTEM":"UTC","MEAN_MOTION_DDOT":"0.0000000000000","CLASSIFICATION_TYPE":"U","BSTAR":"0.00138950000000","NORAD_CAT_ID":"52353","FILE":"3759162","DECAY_DATE":null,"SITE":"AFETR","RCS_SIZE":"LARGE","ARG_OF_PERICENTER":"62.7141","EPOCH":"2023-01-23T10:37:05.066400","ECCENTRICITY":"0.00013330","CENTER_NAME":"EARTH","LAUNCH_DATE":"2022-04-29","PERIAPSIS":"538.810","MEAN_ANOMALY":"297.3987","OBJECT_ID":"2022-045Y","RA_OF_ASC_NODE":"282.3856","INCLINATION":"53.2134","MEAN_MOTION":"15.08844243","MEAN_ELEMENT_THEORY":"SGP4","SEMIMAJOR_AXIS":"6917.867","EPHEMERIS_TYPE":"0","ELEMENT_SET_NO":"999","MEAN_MOTION_DOT":"0.00021898","TLE_LINE1":"1 52353U 22045Y   23023.44241975  .00021898  00000-0  13895-2 0  9993"},{"COUNTRY_CODE":"US","REV_AT_EPOCH":"4349","APOAPSIS":"540.709","OBJECT_TYPE":"PAYLOAD","TLE_LINE2":"2 52354  53.2159 282.4756 0001421  83.3801 276.7353 15.08846291 43498","OBJECT_NAME":"STARLINK-3876","CLASSIFICATION_TYPE":"U","BSTAR":"-0.00008773800000","NORAD_CAT_ID":"52354","FILE":"3758814","MEAN_MOTION_DDOT":"0.0000000000000","REF_FRAME":"TEME","TIME_SYSTEM":"UTC","GP_ID":"223613541","PERIOD":"95.437","ECCENTRICITY":"0.00014210","CENTER_NAME":"EARTH","PERIAPSIS":"538.743","LAUNCH_DATE":"2022-04-29","ARG_OF_PERICENTER":"83.3801","EPOCH":"2023-01-23T10:10:35.045472","DECAY_DATE":null,"SITE":"AFETR","RCS_SIZE":"LARGE","SEMIMAJOR_AXIS":"6917.861","ELEMENT_SET_NO":"999","EPHEMERIS_TYPE":"0","MEAN_MOTION_DOT":"-0.00001684","TLE_LINE1":"1 52354U 22045Z   23023.42401673 -.00001684  00000-0 -87738-4 0  9997","MEAN_ELEMENT_THEORY":"SGP4","RA_OF_ASC_NODE":"282.4756","OBJECT_ID":"2022-045Z","INCLINATION":"53.2159","MEAN_MOTION":"15.08846291","MEAN_ANOMALY":"276.7353"},{"INCLINATION":"53.2146","MEAN_MOTION":"15.08836116","RA_OF_ASC_NODE":"282.1038","OBJECT_ID":"2022-045AA","MEAN_ANOMALY":"269.7360","TLE_LINE1":"1 52355U 22045AA  23023.50497484 -.00000092  00000-0  12283-4 0  9996","ELEMENT_SET_NO":"999","SEMIMAJOR_AXIS":"6917.892","EPHEMERIS_TYPE":"0","MEAN_MOTION_DOT":"-0.00000092","MEAN_ELEMENT_THEORY":"SGP4","EPOCH":"2023-01-23T12:07:09.826176","ARG_OF_PERICENTER":"90.3761","SITE":"AFETR","DECAY_DATE":null,"RCS_SIZE":"LARGE","CENTER_NAME":"EARTH","LAUNCH_DATE":"2022-04-29","PERIAPSIS":"538.976","ECCENTRICITY":"0.00011290","REF_FRAME":"TEME","TIME_SYSTEM":"UTC","PERIOD":"95.438","GP_ID":"223613586","NORAD_CAT_ID":"52355","FILE":"3758817","CLASSIFICATION_TYPE":"U","BSTAR":"0.00001228300000","MEAN_MOTION_DDOT":"0.0000000000000","OBJECT_NAME":"STARLINK-3877","COUNTRY_CODE":"US","REV_AT_EPOCH":"4350","TLE_LINE2":"2 52355  53.2146 282.1038 0001129  90.3761 269.7360 15.08836116 43500","APOAPSIS":"540.538","OBJECT_TYPE":"PAYLOAD"},{"ECCENTRICITY":"0.00017350","PERIAPSIS":"538.571","LAUNCH_DATE":"2022-04-29","CENTER_NAME":"EARTH","ARG_OF_PERICENTER":"75.5353","EPOCH":"2023-01-23T02:15:02.321568","DECAY_DATE":null,"SITE":"AFETR","RCS_SIZE":"LARGE","MEAN_MOTION_DOT":"0.00005561","SEMIMAJOR_AXIS":"6917.907","EPHEMERIS_TYPE":"0","ELEMENT_SET_NO":"999","TLE_LINE1":"1 52356U 22045AB  23023.09377687  .00005561  00000-0  36727-3 0  9996","MEAN_ELEMENT_THEORY":"SGP4","RA_OF_ASC_NODE":"283.9544","OBJECT_ID":"2022-045AB","MEAN_MOTION":"15.08831419","INCLINATION":"53.2134","MEAN_ANOMALY":"284.5832","COUNTRY_CODE":"US","REV_AT_EPOCH":"4344","OBJECT_TYPE":"PAYLOAD","APOAPSIS":"540.972","TLE_LINE2":"2 52356  53.2134 283.9544 0001735  75.5353 284.5832 15.08831419 43447","OBJECT_NAME":"STARLINK-3801","BSTAR":"0.00036727000000","CLASSIFICATION_TYPE":"U","FILE":"3758565","NORAD_CAT_ID":"52356","MEAN_MOTION_DDOT":"0.0000000000000","TIME_SYSTEM":"UTC","REF_FRAME":"TEME","GP_ID":"223607557","PERIOD":"95.438"},{"OBJECT_NAME":"STARLINK-3821","TLE_LINE2":"2 52357  53.2116 282.4397 0001349  83.7319 276.3827 15.08839506 43495","APOAPSIS":"540.680","OBJECT_TYPE":"PAYLOAD","COUNTRY_CODE":"US","REV_AT_EPOCH":"4349","PERIOD":"95.438","GP_ID":"223613836","TIME_SYSTEM":"UTC","REF_FRAME":"TEME","MEAN_MOTION_DDOT":"0.0000000000000","FILE":"3758814","NORAD_CAT_ID":"52357","CLASSIFICATION_TYPE":"U","BSTAR":"0.00093949000000","RCS_SIZE":"LARGE","DECAY_DATE":null,"SITE":"AFETR","EPOCH":"2023-01-23T10:21:11.104992","ARG_OF_PERICENTER":"83.7319","CENTER_NAME":"EARTH","LAUNCH_DATE":"2022-04-29","PERIAPSIS":"538.814","ECCENTRICITY":"0.00013490","MEAN_ANOMALY":"276.3827","INCLINATION":"53.2116","MEAN_MOTION":"15.08839506","RA_OF_ASC_NODE":"282.4397","OBJECT_ID":"2022-045AC","MEAN_ELEMENT_THEORY":"SGP4","TLE_LINE1":"1 52357U 22045AC  23023.43137853  .00014695  00000-0  93949-3 0  9991","ELEMENT_SET_NO":"999","SEMIMAJOR_AXIS":"6917.882","EPHEMERIS_TYPE":"0","MEAN_MOTION_DOT":"0.00014695"}];
